ONEWEB-0134             
1 47280U 20100Y   24033.91060068 -.00000213  00000+0 -62824-3 0  9998
2 47280  87.9033 162.8222 0001707  94.6985 265.4339 13.12441698151213
ONEWEB-0135             
1 47281U 20100Z   24033.87883809  .00000456  00000+0  12321-2 0  9993
2 47281  87.9039 162.8369 0001635 100.2718 259.8595 13.12442195151236
ONEWEB-0136             
1 47282U 20100AA  24033.90106764  .00000097  00000+0  23457-3 0  9990
2 47282  87.9040 162.8009 0001701  83.3967 276.7355 13.12440611151166
ONEWEB-0137             
1 47283U 20100AB  24033.85818590 -.00000076  00000+0 -24608-3 0  9990
2 47283  87.9033 162.8404 0001375 102.0384 258.0898 13.12443011151068
ONEWEB-0138             
1 47284U 20100AC  24033.91377213 -.00000362  00000+0 -10417-2 0  9990
2 47284  87.9034 162.8420 0001554  99.9272 260.2032 13.12441279151156
ONEWEB-0139             
1 47285U 20100AD  24033.88519630  .00000397  00000+0  10695-2 0  9992
2 47285  87.9042 162.8139 0002033  85.7605 274.3756 13.12440158151221
ONEWEB-0140             
1 47286U 20100AE  24033.90742020 -.00000111  00000+0 -34352-3 0  9990
2 47286  87.9033 162.8179 0001564  96.4140 263.7167 13.12441518151192
ONEWEB-0141             
1 47287U 20100AF  24033.85102997 -.00000300  00000+0 -86883-3 0  9994
2 47287  87.9034 162.8265 0001549 113.2087 246.9205 13.12442162151171
